[{"OBJECT_NAME":"VIGORIDE-3","OBJECT_ID":"2022-057AE","EPOCH":"2026-03-09T22:06:57.048768","MEAN_MOTION":15.2610122,"ECCENTRICITY":0.00097778,"INCLINATION":97.6431,"RA_OF_ASC_NODE":206.4459,"ARG_OF_PERICENTER":111.2279,"MEAN_ANOMALY":249.0004,"EPHEMERIS_TYPE":0,"CLASSIFICATION_TYPE":"U","NORAD_CAT_ID":52760,"ELEMENT_SET_NO":999,"REV_AT_EPOCH":21001,"BSTAR":0.00033325795,"MEAN_MOTION_DOT":8.532e-5,"MEAN_MOTION_DDOT":0},{"OBJECT_NAME":"STARLINK-33642","OBJECT_ID":"2025-099AC","EPOCH":"2026-03-09T08:10:34.260384","MEAN_MOTION":15.2758281,"ECCENTRICITY":0.00014495,"INCLINATION":42.9947,"RA_OF_ASC_NODE":174.656,"ARG_OF_PERICENTER":170.947,"MEAN_ANOMALY":189.1408,"EPHEMERIS_TYPE":0,"CLASSIFICATION_TYPE":"U","NORAD_CAT_ID":63978,"ELEMENT_SET_NO":999,"REV_AT_EPOCH":4723,"BSTAR":0.00092268435,"MEAN_MOTION_DOT":0.00025217,"MEAN_MOTION_DDOT":0}]
